{
  "type": "FeatureCollection",
  "features": [
    {
      "type": "Feature",
      "properties": {
        "norad_id": 30334,
        "name": "FENGYUN 1C DEB",
        "group": "fengyun-1c-debris",
        "lat": -17.173960505360995,
        "lon": -101.1668344744162,
        "alt_km": 1022.8217383609781,
        "timestamp": "2025-12-07T22:37:43.355460+00:00",
        "meta_object_name": "FENGYUN 1C DEB",
        "meta_object_id": "1999-025AAV",
        "meta_epoch": "2025-12-06T20:23:48.909696",
        "meta_mean_motion": 13.92349214,
        "meta_eccentricity": 0.01447232,
        "meta_inclination": 99.0217,
        "meta_ra_of_asc_node": 80.5832,
        "meta_arg_of_pericenter": 358.1015,
        "meta_mean_anomaly": 124.2104,
        "meta_ephemeris_type": 0,
        "meta_classification_type": "U",
        "meta_norad_cat_id": 30334,
        "meta_element_set_no": 999,
        "meta_rev_at_epoch": 95139,
        "meta_bstar": 0.0018840067,
        "meta_mean_motion_dot": 2.594e-05,
        "meta_mean_motion_ddot": 0,
        "tle_line1": "1 30334U 99025AAV 25340.84987164  .00002594  00000+0  18840-2 0  9991",
        "tle_line2": "2 30334  99.0217  80.5832 0144723 358.1015 124.2104 13.92349214951392"
      },
      "geometry": {
        "type": "Point",
        "coordinates": [
          -101.1668344744162,
          -17.173960505360995
        ]
      }
    },
    {
      "type": "Feature",
      "properties": {
        "norad_id": 30335,
        "name": "FENGYUN 1C DEB",
        "group": "fengyun-1c-debris",
        "lat": -71.90239732834628,
        "lon": 124.68636564837074,
        "alt_km": 926.9942937007781,
        "timestamp": "2025-12-07T22:37:43.355470+00:00",
        "meta_object_name": "FENGYUN 1C DEB",
        "meta_object_id": "1999-025AAW",
        "meta_epoch": "2025-12-07T06:03:50.561856",
        "meta_mean_motion": 14.01358463,
        "meta_eccentricity": 0.01325346,
        "meta_inclination": 98.905,
        "meta_ra_of_asc_node": 332.6818,
        "meta_arg_of_pericenter": 146.8027,
        "meta_mean_anomaly": 225.8693,
        "meta_ephemeris_type": 0,
        "meta_classification_type": "U",
        "meta_norad_cat_id": 30335,
        "meta_element_set_no": 999,
        "meta_rev_at_epoch": 96514,
        "meta_bstar": 0.00019425745,
        "meta_mean_motion_dot": 2.74e-06,
        "meta_mean_motion_ddot": 0,
        "tle_line1": "1 30335U 99025AAW 25341.25266854  .00000274  00000+0  19426-3 0  9999",
        "tle_line2": "2 30335  98.9050 332.6818 0132534 146.8027 225.8693 14.01358463965149"
      },
      "geometry": {
        "type": "Point",
        "coordinates": [
          124.68636564837074,
          -71.90239732834628
        ]
      }
    },
    {
      "type": "Feature",
      "properties": {
        "norad_id": 30336,
        "name": "FENGYUN 1C DEB",
        "group": "fengyun-1c-debris",
        "lat": 30.95884527223203,
        "lon": -171.75826708774173,
        "alt_km": 844.5366906242907,
        "timestamp": "2025-12-07T22:37:43.355481+00:00",
        "meta_object_name": "FENGYUN 1C DEB",
        "meta_object_id": "1999-025AAX",
        "meta_epoch": "2025-12-07T06:59:07.279008",
        "meta_mean_motion": 14.19293665,
        "meta_eccentricity": 0.00438276,
        "meta_inclination": 98.601,
        "meta_ra_of_asc_node": 2.3998,
        "meta_arg_of_pericenter": 24.2947,
        "meta_mean_anomaly": 35.3552,
        "meta_ephemeris_type": 0,
        "meta_classification_type": "U",
        "meta_norad_cat_id": 30336,
        "meta_element_set_no": 999,
        "meta_rev_at_epoch": 97525,
        "meta_bstar": 0.0005898775,
        "meta_mean_motion_dot": 1.207e-05,
        "meta_mean_motion_ddot": 0,
        "tle_line1": "1 30336U 99025AAX 25341.29105647  .00001207  00000+0  58988-3 0  9999",
        "tle_line2": "2 30336  98.6010   2.3998 0043827  24.2947  35.3552 14.19293665975251"
      },
      "geometry": {
        "type": "Point",
        "coordinates": [
          -171.75826708774173,
          30.95884527223203
        ]
      }
    },
    {
      "type": "Feature",
      "properties": {
        "norad_id": 30338,
        "name": "FENGYUN 1C DEB",
        "group": "fengyun-1c-debris",
        "lat": 43.32591170590886,
        "lon": 43.577180128900245,
        "alt_km": 916.4528828774501,
        "timestamp": "2025-12-07T22:37:43.355491+00:00",
        "meta_object_name": "FENGYUN 1C DEB",
        "meta_object_id": "1999-025AAZ",
        "meta_epoch": "2025-12-07T04:17:37.933728",
        "meta_mean_motion": 14.47415225,
        "meta_eccentricity": 0.02720402,
        "meta_inclination": 98.4594,
        "meta_ra_of_asc_node": 50.8818,
        "meta_arg_of_pericenter": 210.7876,
        "meta_mean_anomaly": 175.6452,
        "meta_ephemeris_type": 0,
        "meta_classification_type": "U",
        "meta_norad_cat_id": 30338,
        "meta_element_set_no": 999,
        "meta_rev_at_epoch": 98064,
        "meta_bstar": 0.0018971259,
        "meta_mean_motion_dot": 0.00011061,
        "meta_mean_motion_ddot": 0,
        "tle_line1": "1 30338U 99025AAZ 25341.17891127  .00011061  00000+0  18971-2 0  9999",
        "tle_line2": "2 30338  98.4594  50.8818 0272040 210.7876 175.6452 14.47415225980646"
      },
      "geometry": {
        "type": "Point",
        "coordinates": [
          43.577180128900245,
          43.32591170590886
        ]
      }
    },
    {
      "type": "Feature",
      "properties": {
        "norad_id": 30339,
        "name": "FENGYUN 1C DEB",
        "group": "fengyun-1c-debris",
        "lat": 68.17686124187848,
        "lon": 64.91540734167604,
        "alt_km": 744.9467031940012,
        "timestamp": "2025-12-07T22:37:43.355502+00:00",
        "meta_object_name": "FENGYUN 1C DEB",
        "meta_object_id": "1999-025ABA",
        "meta_epoch": "2025-12-07T05:44:41.752032",
        "meta_mean_motion": 14.38030426,
        "meta_eccentricity": 0.00214567,
        "meta_inclination": 98.9746,
        "meta_ra_of_asc_node": 87.4249,
        "meta_arg_of_pericenter": 101.6993,
        "meta_mean_anomaly": 288.6253,
        "meta_ephemeris_type": 0,
        "meta_classification_type": "U",
        "meta_norad_cat_id": 30339,
        "meta_element_set_no": 999,
        "meta_rev_at_epoch": 97348,
        "meta_bstar": 0.004245063,
        "meta_mean_motion_dot": 0.00012858,
        "meta_mean_motion_ddot": 0,
        "tle_line1": "1 30339U 99025ABA 25341.23937213  .00012858  00000+0  42451-2 0  9999",
        "tle_line2": "2 30339  98.9746  87.4249 0021456 101.6993 288.6253 14.38030426973480"
      },
      "geometry": {
        "type": "Point",
        "coordinates": [
          64.91540734167604,
          68.17686124187848
        ]
      }
    },
    {
      "type": "Feature",
      "properties": {
        "norad_id": 30340,
        "name": "FENGYUN 1C DEB",
        "group": "fengyun-1c-debris",
        "lat": 25.420352414003318,
        "lon": -136.97046285943674,
        "alt_km": 771.668754320599,
        "timestamp": "2025-12-07T22:37:43.355512+00:00",
        "meta_object_name": "FENGYUN 1C DEB",
        "meta_object_id": "1999-025ABB",
        "meta_epoch": "2025-12-07T03:11:30.507072",
        "meta_mean_motion": 14.04594101,
        "meta_eccentricity": 0.01459816,
        "meta_inclination": 99.0021,
        "meta_ra_of_asc_node": 37.9056,
        "meta_arg_of_pericenter": 150.3575,
        "meta_mean_anomaly": 230.7176,
        "meta_ephemeris_type": 0,
        "meta_classification_type": "U",
        "meta_norad_cat_id": 30340,
        "meta_element_set_no": 999,
        "meta_rev_at_epoch": 96702,
        "meta_bstar": 4.0526473e-05,
        "meta_mean_motion_dot": 2.8e-07,
        "meta_mean_motion_ddot": 0,
        "tle_line1": "1 30340U 99025ABB 25341.13299198  .00000028  00000+0  40526-4 0  9992",
        "tle_line2": "2 30340  99.0021  37.9056 0145981 150.3575 230.7176 14.04594101967026"
      },
      "geometry": {
        "type": "Point",
        "coordinates": [
          -136.97046285943674,
          25.420352414003318
        ]
      }
    },
    {
      "type": "Feature",
      "properties": {
        "norad_id": 30341,
        "name": "FENGYUN 1C DEB",
        "group": "fengyun-1c-debris",
        "lat": -32.64226265055041,
        "lon": 43.69380641067671,
        "alt_km": 812.7135021361437,
        "timestamp": "2025-12-07T22:37:43.355523+00:00",
        "meta_object_name": "FENGYUN 1C DEB",
        "meta_object_id": "1999-025ABC",
        "meta_epoch": "2025-12-07T03:55:44.220864",
        "meta_mean_motion": 14.3395612,
        "meta_eccentricity": 0.00498621,
        "meta_inclination": 99.2178,
        "meta_ra_of_asc_node": 228.8347,
        "meta_arg_of_pericenter": 72.9408,
        "meta_mean_anomaly": 79.766,
        "meta_ephemeris_type": 0,
        "meta_classification_type": "U",
        "meta_norad_cat_id": 30341,
        "meta_element_set_no": 999,
        "meta_rev_at_epoch": 97001,
        "meta_bstar": 0.0046635269,
        "meta_mean_motion_dot": 0.00013167,
        "meta_mean_motion_ddot": 0,
        "tle_line1": "1 30341U 99025ABC 25341.16370626  .00013167  00000+0  46635-2 0  9995",
        "tle_line2": "2 30341  99.2178 228.8347 0049862  72.9408  79.7660 14.33956120970018"
      },
      "geometry": {
        "type": "Point",
        "coordinates": [
          43.69380641067671,
          -32.64226265055041
        ]
      }
    }
  ]
}